STARLINK-30783          
1 58130U 23162N   26068.21921962  .00009192  00000+0  34332-3 0  9993
2 58130  43.0004 131.8664 0000579  38.3391 321.7502 15.27561850132272
FLOCK 4G-26             
1 62633U 25009AA  26068.80489479  .00011283  00000+0  42469-3 0  9999
2 62633  97.4054 151.3913 0001988 299.1273  60.9767 15.27281631 63733
